NORAD_CAT_ID,OBJECT_NAME,OBJECT_TYPE,EPOCH,MEAN_MOTION,ECCENTRICITY,INCLINATION,RA_OF_ASC_NODE,ARG_OF_PERICENTER,MEAN_ANOMALY,BSTAR,MEAN_MOTION_DOT,MEAN_MOTION_DDOT,TLE_LINE0,TLE_LINE1,TLE_LINE2,SEMIMAJOR_AXIS,PERIOD,APOGEE,PERIGEE,DECAYED
54175.0,STARLINK-5256,PAYLOAD,2022-12-16 14:00:01,15.50042414,0.0001221,53.2156,259.88,90.9864,4.4419,-0.0065921,-0.00359909,0.0,0 STARLINK-5256,1 54175U 22141U   22350.58334491 -.00359909  00000-0 -65921-2 0  9993,2 54175  53.2156 259.8800 0001221  90.9864   4.4419 15.50042414  1302,6794.739000000001,92.901,417.434,415.774,0.0
54175.0,STARLINK-5256,PAYLOAD,2022-12-16 22:00:00,15.4983699,0.0001315,53.2168,258.2852,94.4397,61.9547,-0.016801,-0.00867492,0.0,0 STARLINK-5256,1 54175U 22141U   22350.91667824 -.00867492  00000-0 -16801-1 0  9992,2 54175  53.2168 258.2852 0001315  94.4397  61.9547 15.49836990  7864,6795.34,92.913,418.098,416.311,0.0
54175.0,STARLINK-5256,PAYLOAD,2022-12-17 06:00:00,15.492171,0.0001249,53.2172,256.693,89.5502,127.3305,-0.022518,-0.01126045,0.0,0 STARLINK-5256,1 54175U 22141U   22351.25001157 -.01126045  00000-0 -22518-1 0  9996,2 54175  53.2172 256.6930 0001249  89.5502 127.3305 15.49217100  7918,6797.151999999999,92.95,419.866,418.168,0.0
54175.0,STARLINK-5256,PAYLOAD,2022-12-17 14:00:01,15.48281607,9.66e-05,53.2146,255.1065,98.1562,178.5004,-0.019553,-0.00960798,0.0,0 STARLINK-5256,1 54175U 22141U   22351.58335648 -.00960798  00000-0 -19553-1 0  9992,2 54175  53.2146 255.1065 0000966  98.1562 178.5004 15.48281607  1302,6799.89,93.006,422.412,421.098,0.0
54175.0,STARLINK-5256,PAYLOAD,2022-12-17 22:00:00,15.47607503,0.0001038,53.2145,253.5192,82.8352,252.3281,-0.02471,-0.0118103,0.0,0 STARLINK-5256,1 54175U 22141U   22351.91667824 -.01181030  00000-0 -24710-1 0  9999,2 54175  53.2145 253.5192 0001038  82.8352 252.3281 15.47607503  1306,6801.864000000001,93.047,424.435,423.023,0.0
54175.0,STARLINK-5256,PAYLOAD,2022-12-18 06:00:02,15.46789171,0.0001103,53.214,251.9333,58.5276,334.3533,-0.024839,-0.01156077,0.0,0 STARLINK-5256,1 54175U 22141U   22352.25002315 -.01156077  00000-0 -24839-1 0  9990,2 54175  53.2140 251.9333 0001103  58.5276 334.3533 15.46789171  8071,6804.263000000001,93.096,426.879,425.378,0.0
54175.0,STARLINK-5256,PAYLOAD,2022-12-18 14:00:01,15.45935646,0.0001116,53.2141,250.3468,74.9564,14.558,-0.024185,-0.0108246,0.0,0 STARLINK-5256,1 54175U 22141U   22352.58334491 -.01082460  00000-0 -24185-1 0  9997,2 54175  53.2141 250.3468 0001116  74.9564  14.5580 15.45935646  1307,6806.767,93.147,429.392,427.87300000000016,0.0
54175.0,STARLINK-5256,PAYLOAD,2022-12-18 22:00:00,15.45151499,0.0001279,53.2141,248.7654,73.5831,71.6284,-0.026358,-0.01158945,0.0,0 STARLINK-5256,1 54175U 22141U   22352.91667824 -.01158945  00000-0 -26358-1 0  9999,2 54175  53.2141 248.7654 0001279  73.5831  71.6284 15.45151499  1308,6809.07,93.195,431.806,430.064,0.0
54175.0,STARLINK-5256,PAYLOAD,2022-12-19 04:00:00,15.44517345,0.0001230999999999,53.2138,247.5805,62.9985,33.349000000000004,-0.02545,-0.01100102,0.0,0 STARLINK-5256,1 54175U 22141U   22353.16667824 -.01100102  00000-0 -25450-1 0  9991,2 54175  53.2138 247.5805 0001231  62.9985  33.3490 15.44517345  8215,6810.934,93.233,433.637,431.96,0.0
54175.0,STARLINK-5256,PAYLOAD,2022-12-19 10:00:00,15.43931247,0.0001095999999999,53.2146,246.3931,72.1596,334.7722,-0.02745,-0.011576,0.0,0 STARLINK-5256,1 54175U 22141U   22353.41667824 -.01157600  00000-0 -27450-1 0  9996,2 54175  53.2146 246.3931 0001096  72.1596 334.7722 15.43931247  8251,6812.656999999997,93.268,435.269,433.776,0.0
54175.0,STARLINK-5256,PAYLOAD,2022-12-19 22:00:00,15.42644783,0.0001196,53.2164,244.0245,91.8789,214.5893,-0.026857,-0.0109012,0.0,0 STARLINK-5256,1 54175U 22141U   22353.91667824 -.01090120  00000-0 -26857-1 0  9994,2 54175  53.2164 244.0245 0001196  91.8789 214.5893 15.42644783  1305,6816.444,93.346,439.124,437.494,0.0
54175.0,STARLINK-5256,PAYLOAD,2022-12-20 14:00:01,15.4105234,0.0001138,53.2141,240.8796,77.9948,331.0680000000001,-0.028437,-0.01093742,0.0,0 STARLINK-5256,1 54175U 22141U   22354.58334491 -.01093742  00000-0 -28437-1 0  9998,2 54175  53.2141 240.8796 0001138  77.9948 331.0680 15.41052340  1303,6821.139,93.443,443.78,442.228,0.0
54175.0,STARLINK-5256,PAYLOAD,2022-12-21 06:00:00,15.39485439,0.0001330999999999,53.2142,237.7412,67.8727,79.8628,-0.03302,-0.01195574,0.0,0 STARLINK-5256,1 54175U 22141U   22355.25001157 -.01195574  00000-0 -33020-1 0  9993,2 54175  53.2142 237.7412 0001331  67.8727  79.8628 15.39485439  8539,6825.767,93.538,448.54,446.723,0.0
54175.0,STARLINK-5256,PAYLOAD,2022-12-21 14:00:01,15.38618584,0.0001399,53.2143,236.1722,83.2711,112.3603,-0.031172,-0.01105005,0.0,0 STARLINK-5256,1 54175U 22141U   22355.58334491 -.01105005  00000-0 -31172-1 0  9995,2 54175  53.2143 236.1722 0001399  83.2711 112.3603 15.38618584  1308,6828.33,93.59,451.151,449.24,0.0
54175.0,STARLINK-5256,PAYLOAD,2022-12-22 06:00:00,15.3701253,0.0001217,53.2173,233.0389,72.6021,215.8164,-0.034107,-0.01143473,0.0,0 STARLINK-5256,1 54175U 22141U   22356.25001157 -.01143473  00000-0 -34107-1 0  9992,2 54175  53.2173 233.0389 0001217  72.6021 215.8164 15.37012530  8699,6833.0859999999975,93.688,455.783,454.12,0.0
54175.0,STARLINK-5256,PAYLOAD,2022-12-22 14:00:01,15.36194386,0.0001144,53.2173,231.476,75.8892,257.4782,-0.034791,-0.01136461,0.0,0 STARLINK-5256,1 54175U 22141U   22356.58334491 -.01136461  00000-0 -34791-1 0  9996,2 54175  53.2173 231.4760 0001144  75.8892 257.4782 15.36194386  1302,6835.512,93.738,458.159,456.595,0.0
54175.0,STARLINK-5256,PAYLOAD,2022-12-22 22:00:00,15.35383587,0.0001208,53.2175,229.9183,66.2087,311.1249,-0.035857,-0.01140629,0.0,0 STARLINK-5256,1 54175U 22141U   22356.91667824 -.01140629  00000-0 -35857-1 0  9997,2 54175  53.2175 229.9183 0001208  66.2087 311.1249 15.35383587  1304,6837.918000000002,93.788,460.609,458.957,0.0
54175.0,STARLINK-5256,PAYLOAD,2022-12-23 06:00:00,15.34569357,0.0001317,53.2173,228.3604,53.7056,6.619,-0.036764,-0.01139423,0.0,0 STARLINK-5256,1 54175U 22141U   22357.25001157 -.01139423  00000-0 -36764-1 0  9994,2 54175  53.2173 228.3604 0001317  53.7056   6.6190 15.34569357  8848,6840.337,93.837,463.103,461.301,0.0
54175.0,STARLINK-5256,PAYLOAD,2022-12-23 14:00:01,15.33758889,0.0001315,53.2171,226.8044,60.6167,41.7194,-0.037907,-0.01144336,0.0,0 STARLINK-5256,1 54175U 22141U   22357.58334491 -.01144336  00000-0 -37907-1 0  9999,2 54175  53.2171 226.8044 0001315  60.6167  41.7194 15.33758889  1302,6842.746,93.887,465.511,463.712,0.0
54175.0,STARLINK-5256,PAYLOAD,2022-12-23 22:00:01,15.329417800000002,0.0001388,53.2172,225.2519,82.4023,61.0336,-0.038726,-0.01139547,0.0,0 STARLINK-5256,1 54175U 22141U   22357.91668981 -.01139547  00000-0 -38726-1 0  9998,2 54175  53.2172 225.2519 0001388  82.4023  61.0336 15.32941780  1302,6845.178000000001,93.937,467.99300000000005,466.093,0.0
54175.0,STARLINK-5256,PAYLOAD,2022-12-24 06:00:00,15.32131624,0.0001440999999999,53.2168,223.6999,69.3023,114.1253,-0.039904,-0.01144082,0.0,0 STARLINK-5256,1 54175U 22141U   22358.25001157 -.01144082  00000-0 -39904-1 0  9991,2 54175  53.2168 223.6999 0001441  69.3023 114.1253 15.32131624  8993,6847.590999999999,93.987,470.442,468.469,0.0
54175.0,STARLINK-5256,PAYLOAD,2022-12-24 14:00:01,15.31318458,0.0001377,53.2169,222.149,68.0515,154.4553,-0.040965,-0.01144744,0.0,0 STARLINK-5256,1 54175U 22141U   22358.58334491 -.01144744  00000-0 -40965-1 0  9991,2 54175  53.2169 222.1490 0001377  68.0515 154.4553 15.31318458  1303,6850.015,94.037,472.823,470.936,0.0
54175.0,STARLINK-5256,PAYLOAD,2022-12-24 22:00:00,15.3051941,0.0001305,53.2171,220.6027,85.4848,175.1157,-0.042818,-0.01164964,0.0,0 STARLINK-5256,1 54175U 22141U   22358.91667824 -.01164964  00000-0 -42818-1 0  9992,2 54175  53.2171 220.6027 0001305  85.4848 175.1157 15.30519410  1308,6852.399,94.086,475.158,473.369,0.0
54175.0,STARLINK-5256,PAYLOAD,2022-12-25 06:00:00,15.29698783,0.0001279,53.2165,219.0562,70.5191,227.2087,-0.043558,-0.01156036,0.0,0 STARLINK-5256,1 54175U 22141U   22359.25001157 -.01156036  00000-0 -43558-1 0  9994,2 54175  53.2165 219.0562 0001279  70.5191 227.2087 15.29698783  9154,6854.849,94.136,477.591,475.837,0.0
54175.0,STARLINK-5256,PAYLOAD,2022-12-25 14:00:01,15.28870638,0.0001273,53.2168,217.5111,74.0461,259.834,-0.043781,-0.01134547,0.0,0 STARLINK-5256,1 54175U 22141U   22359.58334491 -.01134547  00000-0 -43781-1 0  9991,2 54175  53.2168 217.5111 0001273  74.0461 259.8340 15.28870638  1305,6857.324000000001,94.187,480.062,478.316,0.0
54175.0,STARLINK-5256,PAYLOAD,2022-12-26 00:00:00,15.27852809,0.0001299,53.2175,215.585,77.2231,30.4641,-0.045163,-0.01134249,0.0,0 STARLINK-5256,1 54175U 22141U   22360.00001157 -.01134249  00000-0 -45163-1 0  9995,2 54175  53.2175 215.5850 0001299  77.2231  30.4641 15.27852809  1305,6860.369000000002,94.25,483.125,481.343,0.0
54175.0,STARLINK-5256,PAYLOAD,2022-12-26 14:00:01,15.26436339,0.0001291999999999,53.2168,212.8901,66.7727,9.6742,-0.047592,-0.01158976,0.0,0 STARLINK-5256,1 54175U 22141U   22360.58334491 -.01158976  00000-0 -47592-1 0  9999,2 54175  53.2168 212.8901 0001292  66.7727   9.6742 15.26436339  9358,6864.613,94.337,487.365,485.591,0.0
54175.0,STARLINK-5256,PAYLOAD,2022-12-26 22:00:00,15.25627526,0.000137,53.2169,211.3556,77.2319,31.4462,-0.049138,-0.01166954,0.0,0 STARLINK-5256,1 54175U 22141U   22360.91667824 -.01166954  00000-0 -49138-1 0  9998,2 54175  53.2169 211.3556 0001370  77.2319  31.4462 15.25627526  1308,6867.0390000000025,94.387,489.845,487.963,0.0
54175.0,STARLINK-5256,PAYLOAD,2022-12-27 14:00:01,15.23995477,0.0001431,53.2168,208.2867,68.1916,102.0242,-0.051243,-0.0115919,0.0,0 STARLINK-5256,1 54175U 22141U   22361.58334491 -.01159190  00000-0 -51243-1 0  9997,2 54175  53.2168 208.2867 0001431  68.1916 102.0242 15.23995477  9509,6871.94,94.488,494.789,492.822,0.0
